start=new Date('2023-01-28T00:00:00.000Z').valueOf();
sats=[{"GP_ID":"223780250","MEAN_MOTION_DOT":"0.00002028","RCS_SIZE":"LARGE","CLASSIFICATION_TYPE":"U","NORAD_CAT_ID":"45713","OBJECT_TYPE":"PAYLOAD","MEAN_ANOMALY":"287.0657","TIME_SYSTEM":"UTC","MEAN_ELEMENT_THEORY":"SGP4","OBJECT_ID":"2020-035BJ","ELEMENT_SET_NO":"999","PERIOD":"95.592","TLE_LINE1":"1 45713U 20035BJ  23027.57886399  .00002028  00000-0  15501-3 0  9996","CENTER_NAME":"EARTH","EPOCH":"2023-01-27T13:53:33.848736","MEAN_MOTION_DDOT":"0.0000000000000","ECCENTRICITY":"0.00014900","ARG_OF_PERICENTER":"73.0495","INCLINATION":"53.0564","MEAN_MOTION":"15.06400263","LAUNCH_DATE":"2020-06-04","REV_AT_EPOCH":"14707","APOAPSIS":"548.245","RA_OF_ASC_NODE":"121.3083","SITE":"AFETR","TLE_LINE2":"2 45713  53.0564 121.3083 0001490  73.0495 287.0657 15.06400263147076","FILE":"3762811","DECAY_DATE":null,"SEMIMAJOR_AXIS":"6925.348","OBJECT_NAME":"STARLINK-1436","PERIAPSIS":"546.181","EPHEMERIS_TYPE":"0","REF_FRAME":"TEME","BSTAR":"0.00015501000000","COUNTRY_CODE":"US"},{"SEMIMAJOR_AXIS":"6925.363","OBJECT_NAME":"STARLINK-1437","PERIAPSIS":"546.557","EPHEMERIS_TYPE":"0","REF_FRAME":"TEME","BSTAR":"0.00075943000000","COUNTRY_CODE":"US","INCLINATION":"53.0530","MEAN_MOTION":"15.06395332","LAUNCH_DATE":"2020-06-04","REV_AT_EPOCH":"14781","APOAPSIS":"547.899","RA_OF_ASC_NODE":"99.8687","TLE_LINE2":"2 45714  53.0530  99.8687 0000969  86.2083 273.9016 15.06395332147813","SITE":"AFETR","FILE":"3763218","DECAY_DATE":null,"NORAD_CAT_ID":"45714","OBJECT_TYPE":"PAYLOAD","MEAN_ANOMALY":"273.9016","TIME_SYSTEM":"UTC","MEAN_ELEMENT_THEORY":"SGP4","OBJECT_ID":"2020-035BK","PERIOD":"95.592","ELEMENT_SET_NO":"999","TLE_LINE1":"1 45714U 20035BK  23027.90138207  .00011047  00000-0  75943-3 0  9999","CENTER_NAME":"EARTH","EPOCH":"2023-01-27T21:37:59.410848","MEAN_MOTION_DDOT":"0.0000000000000","ARG_OF_PERICENTER":"86.2083","ECCENTRICITY":"0.00009690","GP_ID":"223834551","MEAN_MOTION_DOT":"0.00011047","RCS_SIZE":"LARGE","CLASSIFICATION_TYPE":"U"},{"LAUNCH_DATE":"2020-06-13","INCLINATION":"53.0549","MEAN_MOTION":"15.06410257","APOAPSIS":"548.242","REV_AT_EPOCH":"14474","RA_OF_ASC_NODE":"303.3771","SITE":"AFETR","TLE_LINE2":"2 45730  53.0549 303.3771 0001530  91.2445 268.8719 15.06410257144747","DECAY_DATE":null,"FILE":"3762956","PERIAPSIS":"546.123","SEMIMAJOR_AXIS":"6925.317","OBJECT_NAME":"STARLINK-1461","REF_FRAME":"TEME","BSTAR":"0.00040709000000","EPHEMERIS_TYPE":"0","COUNTRY_CODE":"US","GP_ID":"223802371","RCS_SIZE":"LARGE","MEAN_MOTION_DOT":"0.00005789","CLASSIFICATION_TYPE":"U","OBJECT_TYPE":"PAYLOAD","MEAN_ANOMALY":"268.8719","NORAD_CAT_ID":"45730","OBJECT_ID":"2020-038A","TIME_SYSTEM":"UTC","MEAN_ELEMENT_THEORY":"SGP4","CENTER_NAME":"EARTH","PERIOD":"95.591","ELEMENT_SET_NO":"999","TLE_LINE1":"1 45730U 20038A   23027.11627825  .00005789  00000-0  40709-3 0  9990","MEAN_MOTION_DDOT":"0.0000000000000","ARG_OF_PERICENTER":"91.2445","ECCENTRICITY":"0.00015300","EPOCH":"2023-01-27T02:47:26.440800"},{"PERIAPSIS":"546.338","SEMIMAJOR_AXIS":"6925.388","OBJECT_NAME":"STARLINK-1465","REF_FRAME":"TEME","BSTAR":"-0.00014920000000","EPHEMERIS_TYPE":"0","COUNTRY_CODE":"US","LAUNCH_DATE":"2020-06-13","MEAN_MOTION":"15.06387293","INCLINATION":"53.0510","REV_AT_EPOCH":"14484","APOAPSIS":"548.167","RA_OF_ASC_NODE":"300.0512","SITE":"AFETR","TLE_LINE2":"2 45731  53.0510 300.0512 0001321  97.7961 262.3177 15.06387293144846","DECAY_DATE":null,"FILE":"3763218","OBJECT_TYPE":"PAYLOAD","MEAN_ANOMALY":"262.3177","NORAD_CAT_ID":"45731","OBJECT_ID":"2020-038B","MEAN_ELEMENT_THEORY":"SGP4","TIME_SYSTEM":"UTC","CENTER_NAME":"EARTH","ELEMENT_SET_NO":"999","PERIOD":"95.593","TLE_LINE1":"1 45731U 20038B   23027.86084441 -.00002502  00000-0 -14920-3 0  9992","MEAN_MOTION_DDOT":"0.0000000000000","ARG_OF_PERICENTER":"97.7961","ECCENTRICITY":"0.00013210","EPOCH":"2023-01-27T20:39:36.957024","GP_ID":"223835553","RCS_SIZE":"LARGE","MEAN_MOTION_DOT":"-0.00002502","CLASSIFICATION_TYPE":"U"},{"CLASSIFICATION_TYPE":"U","GP_ID":"223834302","RCS_SIZE":"LARGE","MEAN_MOTION_DOT":"0.00000402","CENTER_NAME":"EARTH","TLE_LINE1":"1 45732U 20038C   23027.84978695  .00000402  00000-0  45910-4 0  9993","ELEMENT_SET_NO":"999","PERIOD":"95.593","ARG_OF_PERICENTER":"92.8450","ECCENTRICITY":"0.00012970","MEAN_MOTION_DDOT":"0.0000000000000","EPOCH":"2023-01-27T20:23:41.592480","MEAN_ANOMALY":"267.2688","OBJECT_TYPE":"PAYLOAD","NORAD_CAT_ID":"45732","OBJECT_ID":"2020-038C","MEAN_ELEMENT_THEORY":"SGP4","TIME_SYSTEM":"UTC","TLE_LINE2":"2 45732  53.0507 300.1016 0001297  92.8450 267.2688 15.06392839144847","SITE":"AFETR","RA_OF_ASC_NODE":"300.1016","DECAY_DATE":null,"FILE":"3763218","LAUNCH_DATE":"2020-06-13","MEAN_MOTION":"15.06392839","INCLINATION":"53.0507","APOAPSIS":"548.134","REV_AT_EPOCH":"14484","BSTAR":"0.00004591000000","REF_FRAME":"TEME","EPHEMERIS_TYPE":"0","COUNTRY_CODE":"US","PERIAPSIS":"546.337","OBJECT_NAME":"STARLINK-1466","SEMIMAJOR_AXIS":"6925.371"},{"GP_ID":"223834552","MEAN_MOTION_DOT":"0.00031879","RCS_SIZE":"LARGE","CLASSIFICATION_TYPE":"U","NORAD_CAT_ID":"45733","MEAN_ANOMALY":"231.5518","OBJECT_TYPE":"PAYLOAD","MEAN_ELEMENT_THEORY":"SGP4","TIME_SYSTEM":"UTC","OBJECT_ID":"2020-038D","TLE_LINE1":"1 45733U 20038D   23027.84889218  .00031879  00000-0  17733-2 0  9998","PERIOD":"95.149","ELEMENT_SET_NO":"999","CENTER_NAME":"EARTH","EPOCH":"2023-01-27T20:22:24.284352","ECCENTRICITY":"0.00019060","ARG_OF_PERICENTER":"128.5645","MEAN_MOTION_DDOT":"0.0000000000000","MEAN_MOTION":"15.13411926","INCLINATION":"53.0537","LAUNCH_DATE":"2020-06-13","APOAPSIS":"527.122","REV_AT_EPOCH":"14489","TLE_LINE2":"2 45733  53.0537 296.5144 0001906 128.5645 231.5518 15.13411926144899","SITE":"AFETR","RA_OF_ASC_NODE":"296.5144","FILE":"3763218","DECAY_DATE":null,"OBJECT_NAME":"STARLINK-1467","SEMIMAJOR_AXIS":"6903.941","PERIAPSIS":"524.490","EPHEMERIS_TYPE":"0","BSTAR":"0.00177330000000","REF_FRAME":"TEME","COUNTRY_CODE":"US"},{"EPOCH":"2023-01-27T03:02:57.420672","ARG_OF_PERICENTER":"108.5923","ECCENTRICITY":"0.00017570","MEAN_MOTION_DDOT":"0.0000000000000","TLE_LINE1":"1 45734U 20038E   23027.12705348  .00005804  00000-0  35160-3 0  9995","ELEMENT_SET_NO":"999","PERIOD":"95.242","CENTER_NAME":"EARTH","TIME_SYSTEM":"UTC","MEAN_ELEMENT_THEORY":"SGP4","OBJECT_ID":"2020-038E","NORAD_CAT_ID":"45734","MEAN_ANOMALY":"251.5259","OBJECT_TYPE":"PAYLOAD","CLASSIFICATION_TYPE":"U","MEAN_MOTION_DOT":"0.00005804","RCS_SIZE":"LARGE","GP_ID":"223801872","COUNTRY_CODE":"US","EPHEMERIS_TYPE":"0","BSTAR":"0.00035160000000","REF_FRAME":"TEME","OBJECT_NAME":"STARLINK-1468","SEMIMAJOR_AXIS":"6908.422","PERIAPSIS":"529.073","FILE":"3762956","DECAY_DATE":null,"SITE":"AFETR","TLE_LINE2":"2 45734  53.0555 300.7636 0001757 108.5923 251.5259 15.11939684144770","RA_OF_ASC_NODE":"300.7636","APOAPSIS":"531.501","REV_AT_EPOCH":"14477","INCLINATION":"53.0555","MEAN_MOTION":"15.11939684","LAUNCH_DATE":"2020-06-13"},{"OBJECT_ID":"2020-038F","MEAN_ELEMENT_THEORY":"SGP4","TIME_SYSTEM":"UTC","MEAN_ANOMALY":"275.2101","OBJECT_TYPE":"PAYLOAD","NORAD_CAT_ID":"45735","ARG_OF_PERICENTER":"84.9031","ECCENTRICITY":"0.00012560","MEAN_MOTION_DDOT":"0.0000000000000","EPOCH":"2023-01-27T03:29:53.904192","CENTER_NAME":"EARTH","TLE_LINE1":"1 45735U 20038F   23027.14576278  .00001722  00000-0  13446-3 0  9994","ELEMENT_SET_NO":"999","PERIOD":"95.592","RCS_SIZE":"LARGE","MEAN_MOTION_DOT":"0.00001722","GP_ID":"223802621","CLASSIFICATION_TYPE":"U","PERIAPSIS":"546.315","OBJECT_NAME":"STARLINK-1471","SEMIMAJOR_AXIS":"6925.319","COUNTRY_CODE":"US","BSTAR":"0.00013446000000","REF_FRAME":"TEME","EPHEMERIS_TYPE":"0","REV_AT_EPOCH":"14473","APOAPSIS":"548.054","LAUNCH_DATE":"2020-06-13","MEAN_MOTION":"15.06409515","INCLINATION":"53.0534","DECAY_DATE":null,"FILE":"3762956","SITE":"AFETR","TLE_LINE2":"2 45735  53.0534 303.2566 0001256  84.9031 275.2101 15.06409515144733","RA_OF_ASC_NODE":"303.2566"},{"OBJECT_ID":"2020-038G","MEAN_ELEMENT_THEORY":"SGP4","TIME_SYSTEM":"UTC","OBJECT_TYPE":"PAYLOAD","MEAN_ANOMALY":"14.9605","NORAD_CAT_ID":"45736","MEAN_MOTION_DDOT":"0.0000000000000","ECCENTRICITY":"0.00009450","ARG_OF_PERICENTER":"345.1373","EPOCH":"2023-01-27T19:35:02.670432","CENTER_NAME":"EARTH","ELEMENT_SET_NO":"999","PERIOD":"93.160","TLE_LINE1":"1 45736U 20038G   23027.81600313  .00025871  00000-0  53363-3 0  9990","RCS_SIZE":"LARGE","MEAN_MOTION_DOT":"0.00025871","GP_ID":"223833803","CLASSIFICATION_TYPE":"U","PERIAPSIS":"428.581","SEMIMAJOR_AXIS":"6807.359","OBJECT_NAME":"STARLINK-1472","COUNTRY_CODE":"US","REF_FRAME":"TEME","BSTAR":"0.00053363000000","EPHEMERIS_TYPE":"0","APOAPSIS":"429.868","REV_AT_EPOCH":"14602","LAUNCH_DATE":"2020-06-13","MEAN_MOTION":"15.45733943","INCLINATION":"53.0587","DECAY_DATE":null,"FILE":"3763218","RA_OF_ASC_NODE":"217.0648","TLE_LINE2":"2 45736  53.0587 217.0648 0000945 345.1373  14.9605 15.45733943146029","SITE":"AFETR"},{"EPHEMERIS_TYPE":"0","BSTAR":"-0.00004913800000","REF_FRAME":"TEME","COUNTRY_CODE":"US","OBJECT_NAME":"STARLINK-1474","SEMIMAJOR_AXIS":"6925.378","PERIAPSIS":"546.402","TLE_LINE2":"2 45738  53.0508 300.0373 0001214  91.4967 268.6161 15.06390548144842","SITE":"AFETR","RA_OF_ASC_NODE":"300.0373","FILE":"3763218","DECAY_DATE":null,"MEAN_MOTION":"15.06390548","INCLINATION":"53.0508","LAUNCH_DATE":"2020-06-13","REV_AT_EPOCH":"14484","APOAPSIS":"548.083","TLE_LINE1":"1 45738U 20038J   23027.86452831 -.00001013  00000-0 -49138-4 0  9997","PERIOD":"95.593","ELEMENT_SET_NO":"999","CENTER_NAME":"EARTH","EPOCH":"2023-01-27T20:44:55.245984","ARG_OF_PERICENTER":"91.4967","ECCENTRICITY":"0.00012140","MEAN_MOTION_DDOT":"0.0000000000000","NORAD_CAT_ID":"45738","MEAN_ANOMALY":"268.6161","OBJECT_TYPE":"PAYLOAD","TIME_SYSTEM":"UTC","MEAN_ELEMENT_THEORY":"SGP4","OBJECT_ID":"2020-038J","CLASSIFICATION_TYPE":"U","GP_ID":"223834052","MEAN_MOTION_DOT":"-0.00001013","RCS_SIZE":"LARGE"}];
